[{"OBJECT_NAME":"GAOFEN-9 05","OBJECT_ID":"2020-058A","EPOCH":"2026-03-10T00:01:50.876256","MEAN_MOTION":15.30293976,"ECCENTRICITY":0.0010522,"INCLINATION":97.2228,"RA_OF_ASC_NODE":111.963,"ARG_OF_PERICENTER":91.0204,"MEAN_ANOMALY":269.2242,"EPHEMERIS_TYPE":0,"CLASSIFICATION_TYPE":"U","NORAD_CAT_ID":46232,"ELEMENT_SET_NO":999,"REV_AT_EPOCH":30843,"BSTAR":0.00025120304,"MEAN_MOTION_DOT":7.299e-5,"MEAN_MOTION_DDOT":0},{"OBJECT_NAME":"STARLINK-34840","OBJECT_ID":"2025-257AC","EPOCH":"2026-03-09T16:23:49.176384","MEAN_MOTION":15.30192885,"ECCENTRICITY":4.87e-5,"INCLINATION":53.1594,"RA_OF_ASC_NODE":216.9578,"ARG_OF_PERICENTER":96.2852,"MEAN_ANOMALY":263.8205,"EPHEMERIS_TYPE":0,"CLASSIFICATION_TYPE":"U","NORAD_CAT_ID":66406,"ELEMENT_SET_NO":999,"REV_AT_EPOCH":1967,"BSTAR":0.00060525505,"MEAN_MOTION_DOT":0.00017606,"MEAN_MOTION_DDOT":0}]
